[{"OBJECT_NAME":"JILIN-1 GAOFEN 3D04","OBJECT_ID":"2022-046B","EPOCH":"2026-03-09T17:36:07.679808","MEAN_MOTION":15.76354751,"ECCENTRICITY":0.00015268,"INCLINATION":97.4899,"RA_OF_ASC_NODE":183.6662,"ARG_OF_PERICENTER":245.0805,"MEAN_ANOMALY":115.0302,"EPHEMERIS_TYPE":0,"CLASSIFICATION_TYPE":"U","NORAD_CAT_ID":52389,"ELEMENT_SET_NO":999,"REV_AT_EPOCH":21487,"BSTAR":0.001117663,"MEAN_MOTION_DOT":0.00178961,"MEAN_MOTION_DDOT":0},{"OBJECT_NAME":"STARLINK-36967","OBJECT_ID":"2026-039AD","EPOCH":"2026-03-09T22:00:01.999584","MEAN_MOTION":15.86034512,"ECCENTRICITY":0.00017341,"INCLINATION":42.9972,"RA_OF_ASC_NODE":53.3059,"ARG_OF_PERICENTER":258.5361,"MEAN_ANOMALY":95.1689,"EPHEMERIS_TYPE":0,"CLASSIFICATION_TYPE":"U","NORAD_CAT_ID":68013,"ELEMENT_SET_NO":999,"REV_AT_EPOCH":291,"BSTAR":-0.0069624488,"MEAN_MOTION_DOT":-0.0156263,"MEAN_MOTION_DDOT":0}]
